{
  "type": "FeatureCollection",
  "features": [
    {
      "type": "Feature",
      "properties": {
        "norad_id": 30208,
        "name": "FENGYUN 1C DEB",
        "group": "fengyun-1c-debris",
        "lat": -58.26005684383208,
        "lon": 159.9948366095235,
        "alt_km": 797.2127772032072,
        "timestamp": "2025-12-19T06:59:44.183241+00:00",
        "meta_object_name": "FENGYUN 1C DEB",
        "meta_object_id": "1999-025VR",
        "meta_epoch": "2025-12-18T23:22:48.840960",
        "meta_mean_motion": 14.23540147,
        "meta_eccentricity": 0.0032984,
        "meta_inclination": 98.5616,
        "meta_ra_of_asc_node": 353.7815,
        "meta_arg_of_pericenter": 251.4766,
        "meta_mean_anomaly": 162.6575,
        "meta_ephemeris_type": 0,
        "meta_classification_type": "U",
        "meta_norad_cat_id": 30208,
        "meta_element_set_no": 999,
        "meta_rev_at_epoch": 97926,
        "meta_bstar": 0.00038836048,
        "meta_mean_motion_dot": 8.46e-06,
        "meta_mean_motion_ddot": 0,
        "tle_line1": "1 30208U 99025VR  25352.97417640  .00000846  00000+0  38836-3 0  9991",
        "tle_line2": "2 30208  98.5616 353.7815 0032984 251.4766 162.6575 14.23540147979265"
      },
      "geometry": {
        "type": "Point",
        "coordinates": [
          159.9948366095235,
          -58.26005684383208
        ]
      }
    },
    {
      "type": "Feature",
      "properties": {
        "norad_id": 30209,
        "name": "FENGYUN 1C DEB",
        "group": "fengyun-1c-debris",
        "lat": -27.664983733261927,
        "lon": -5.443518921769875,
        "alt_km": 865.6964099539919,
        "timestamp": "2025-12-19T06:59:44.183252+00:00",
        "meta_object_name": "FENGYUN 1C DEB",
        "meta_object_id": "1999-025VS",
        "meta_epoch": "2025-12-18T22:46:06.954240",
        "meta_mean_motion": 14.12911152,
        "meta_eccentricity": 0.00388365,
        "meta_inclination": 98.714,
        "meta_ra_of_asc_node": 349.6113,
        "meta_arg_of_pericenter": 220.7931,
        "meta_mean_anomaly": 168.2571,
        "meta_ephemeris_type": 0,
        "meta_classification_type": "U",
        "meta_norad_cat_id": 30209,
        "meta_element_set_no": 999,
        "meta_rev_at_epoch": 97294,
        "meta_bstar": 0.0002970144,
        "meta_mean_motion_dot": 5.14e-06,
        "meta_mean_motion_ddot": 0,
        "tle_line1": "1 30209U 99025VS  25352.94869160  .00000514  00000+0  29701-3 0  9990",
        "tle_line2": "2 30209  98.7140 349.6113 0038836 220.7931 168.2571 14.12911152972942"
      },
      "geometry": {
        "type": "Point",
        "coordinates": [
          -5.443518921769875,
          -27.664983733261927
        ]
      }
    },
    {
      "type": "Feature",
      "properties": {
        "norad_id": 30210,
        "name": "FENGYUN 1C DEB",
        "group": "fengyun-1c-debris",
        "lat": -49.52290431181251,
        "lon": -147.77712012722483,
        "alt_km": 887.2595555982098,
        "timestamp": "2025-12-19T06:59:44.183262+00:00",
        "meta_object_name": "FENGYUN 1C DEB",
        "meta_object_id": "1999-025VT",
        "meta_epoch": "2025-12-18T16:49:56.951904",
        "meta_mean_motion": 14.08279762,
        "meta_eccentricity": 0.00568907,
        "meta_inclination": 99.1898,
        "meta_ra_of_asc_node": 42.5571,
        "meta_arg_of_pericenter": 120.0551,
        "meta_mean_anomaly": 359.4609,
        "meta_ephemeris_type": 0,
        "meta_classification_type": "U",
        "meta_norad_cat_id": 30210,
        "meta_element_set_no": 999,
        "meta_rev_at_epoch": 96841,
        "meta_bstar": 0.00041071118,
        "meta_mean_motion_dot": 6.67e-06,
        "meta_mean_motion_ddot": 0,
        "tle_line1": "1 30210U 99025VT  25352.70135361  .00000667  00000+0  41071-3 0  9998",
        "tle_line2": "2 30210  99.1898  42.5571 0056890 120.0551 359.4609 14.08279762968418"
      },
      "geometry": {
        "type": "Point",
        "coordinates": [
          -147.77712012722483,
          -49.52290431181251
        ]
      }
    },
    {
      "type": "Feature",
      "properties": {
        "norad_id": 30212,
        "name": "FENGYUN 1C DEB",
        "group": "fengyun-1c-debris",
        "lat": -34.570264042774795,
        "lon": 32.26536616684732,
        "alt_km": 839.6755031467173,
        "timestamp": "2025-12-19T06:59:44.183272+00:00",
        "meta_object_name": "FENGYUN 1C DEB",
        "meta_object_id": "1999-025VV",
        "meta_epoch": "2025-12-18T14:29:46.565088",
        "meta_mean_motion": 13.9705919,
        "meta_eccentricity": 0.00970094,
        "meta_inclination": 99.4568,
        "meta_ra_of_asc_node": 218.1536,
        "meta_arg_of_pericenter": 221.2702,
        "meta_mean_anomaly": 138.1099,
        "meta_ephemeris_type": 0,
        "meta_classification_type": "U",
        "meta_norad_cat_id": 30212,
        "meta_element_set_no": 999,
        "meta_rev_at_epoch": 96307,
        "meta_bstar": 0.0001356375,
        "meta_mean_motion_dot": 1.49e-06,
        "meta_mean_motion_ddot": 0,
        "tle_line1": "1 30212U 99025VV  25352.60401117  .00000149  00000+0  13564-3 0  9995",
        "tle_line2": "2 30212  99.4568 218.1536 0097009 221.2702 138.1099 13.97059190963078"
      },
      "geometry": {
        "type": "Point",
        "coordinates": [
          32.26536616684732,
          -34.570264042774795
        ]
      }
    },
    {
      "type": "Feature",
      "properties": {
        "norad_id": 30213,
        "name": "FENGYUN 1C DEB",
        "group": "fengyun-1c-debris",
        "lat": -80.74886616347413,
        "lon": 169.25785806251895,
        "alt_km": 822.7562812301376,
        "timestamp": "2025-12-19T06:59:44.183283+00:00",
        "meta_object_name": "FENGYUN 1C DEB",
        "meta_object_id": "1999-025VW",
        "meta_epoch": "2025-12-18T16:50:32.929728",
        "meta_mean_motion": 14.11607934,
        "meta_eccentricity": 0.00721733,
        "meta_inclination": 99.1229,
        "meta_ra_of_asc_node": 69.2413,
        "meta_arg_of_pericenter": 227.2584,
        "meta_mean_anomaly": 285.5225,
        "meta_ephemeris_type": 0,
        "meta_classification_type": "U",
        "meta_norad_cat_id": 30213,
        "meta_element_set_no": 999,
        "meta_rev_at_epoch": 96599,
        "meta_bstar": 0.0011488406,
        "meta_mean_motion_dot": 2.093e-05,
        "meta_mean_motion_ddot": 0,
        "tle_line1": "1 30213U 99025VW  25352.70177002  .00002093  00000+0  11488-2 0  9992",
        "tle_line2": "2 30213  99.1229  69.2413 0072173 227.2584 285.5225 14.11607934965991"
      },
      "geometry": {
        "type": "Point",
        "coordinates": [
          169.25785806251895,
          -80.74886616347413
        ]
      }
    },
    {
      "type": "Feature",
      "properties": {
        "norad_id": 30214,
        "name": "FENGYUN 1C DEB",
        "group": "fengyun-1c-debris",
        "lat": 0.7614511124889756,
        "lon": -113.41639539112614,
        "alt_km": 804.526575487911,
        "timestamp": "2025-12-19T06:59:44.183293+00:00",
        "meta_object_name": "FENGYUN 1C DEB",
        "meta_object_id": "1999-025VX",
        "meta_epoch": "2025-12-18T22:11:35.838240",
        "meta_mean_motion": 14.30972064,
        "meta_eccentricity": 0.00204451,
        "meta_inclination": 98.7246,
        "meta_ra_of_asc_node": 66.0986,
        "meta_arg_of_pericenter": 25.6841,
        "meta_mean_anomaly": 65.0194,
        "meta_ephemeris_type": 0,
        "meta_classification_type": "U",
        "meta_norad_cat_id": 30214,
        "meta_element_set_no": 999,
        "meta_rev_at_epoch": 97655,
        "meta_bstar": 0.0012755361,
        "meta_mean_motion_dot": 3.318e-05,
        "meta_mean_motion_ddot": 0,
        "tle_line1": "1 30214U 99025VX  25352.92472035  .00003318  00000+0  12755-2 0  9990",
        "tle_line2": "2 30214  98.7246  66.0986 0020445  25.6841  65.0194 14.30972064976557"
      },
      "geometry": {
        "type": "Point",
        "coordinates": [
          -113.41639539112614,
          0.7614511124889756
        ]
      }
    },
    {
      "type": "Feature",
      "properties": {
        "norad_id": 30217,
        "name": "FENGYUN 1C DEB",
        "group": "fengyun-1c-debris",
        "lat": -7.572232018687145,
        "lon": 155.67536940596548,
        "alt_km": 840.7360924906206,
        "timestamp": "2025-12-19T06:59:44.183303+00:00",
        "meta_object_name": "FENGYUN 1C DEB",
        "meta_object_id": "1999-025WA",
        "meta_epoch": "2025-12-18T21:42:22.001184",
        "meta_mean_motion": 14.24842206,
        "meta_eccentricity": 0.01407238,
        "meta_inclination": 98.4317,
        "meta_ra_of_asc_node": 336.4333,
        "meta_arg_of_pericenter": 81.9158,
        "meta_mean_anomaly": 279.796,
        "meta_ephemeris_type": 0,
        "meta_classification_type": "U",
        "meta_norad_cat_id": 30217,
        "meta_element_set_no": 999,
        "meta_rev_at_epoch": 98161,
        "meta_bstar": 0.00020486221,
        "meta_mean_motion_dot": 4.89e-06,
        "meta_mean_motion_ddot": 0,
        "tle_line1": "1 30217U 99025WA  25352.90442131  .00000489  00000+0  20486-3 0  9992",
        "tle_line2": "2 30217  98.4317 336.4333 0140723  81.9158 279.7960 14.24842206981619"
      },
      "geometry": {
        "type": "Point",
        "coordinates": [
          155.67536940596548,
          -7.572232018687145
        ]
      }
    }
  ]
}